H1 CPF 01  gfz 2022 07 13 12  6942 tandemx   
H2 1003001  6202 36605    2022 07 13 12 59 42 2022 07 18 00 00 42   120 1 1  0 0 0
H9
10 0 59775  56142.000000  0   -4442657.856  -3862014.358   3569128.798
10 0 59775  56262.000000  0   -4882352.378  -3988371.854   2768684.356
10 0 59775  56382.000000  0   -5238217.135  -4038027.474   1919481.629
10 0 59775  56502.000000  0   -5502693.963  -4011646.872   1036475.071
10 0 59775  56622.000000  0   -5669864.093  -3911355.659    135217.562
10 0 59775  56742.000000  0   -5735579.775  -3740672.477   -768421.514
10 0 59775  56862.000000  0   -5697560.751  -3504413.635  -1658545.361
10 0 59775  56982.000000  0   -5555451.342  -3208570.513  -2519519.024
10 0 59775  57102.000000  0   -5310838.220  -2860164.713  -3336249.837
10 0 59775  57222.000000  0   -4967229.748  -2467085.081  -4094455.013
10 0 59775  57342.000000  0   -4529997.969  -2037910.563  -4780910.712
10 0 59775  57462.000000  0   -4006284.925  -1581723.992  -5383678.685
10 0 59775  57582.000000  0   -3404876.174  -1107920.463  -5892306.617
10 0 59775  57702.000000  0   -2736045.199   -626014.959  -6297998.918
10 0 59775  57822.000000  0   -2011372.519   -145453.683  -6593757.377
10 0 59775  57942.000000  0   -1243542.277    324567.197  -6774490.055
10 0 59775  58062.000000  0    -446122.237    775272.224  -6837088.507
10 0 59775  58182.000000  0     366670.824   1198466.301  -6780475.242
10 0 59775  58302.000000  0    1180217.208   1586678.932  -6605620.820
10 0 59775  58422.000000  0    1979751.749   1933293.687  -6315531.263
10 0 59775  58542.000000  0    2750626.589   2232659.966  -5915201.699
10 0 59775  58662.000000  0    3478576.001   2480184.929  -5411538.446
10 0 59775  58782.000000  0    4149978.019   2672404.574  -4813251.106
10 0 59775  58902.000000  0    4752112.128   2807033.651  -4130714.091
10 0 59775  59022.000000  0    5273405.870   2882992.026  -3375796.176
10 0 59775  59142.000000  0    5703663.943   2900406.938  -2561662.023
10 0 59775  59262.000000  0    6034277.880   2860591.803  -1702548.089
10 0 59775  59382.000000  0    6258407.760   2765999.198   -813513.163
10 0 59775  59502.000000  0    6371131.643   2620150.241     89828.386
10 0 59775  59622.000000  0    6369557.970   2427540.530    991587.985
10 0 59775  59742.000000  0    6252897.311   2193525.736   1875888.844
10 0 59775  59862.000000  0    6022494.327   1924191.256   2727154.449
10 0 59775  59982.000000  0    5681814.731   1626205.906   3530392.086
10 0 59775  60102.000000  0    5236389.411   1306665.666   4271464.041
10 0 59775  60222.000000  0    4693716.214    972930.629   4937339.916
10 0 59775  60342.000000  0    4063125.734    632460.627   5516325.994
10 0 59775  60462.000000  0    3355611.168    292651.417   5998269.810
10 0 59775  60582.000000  0    2583626.861    -39322.759   6374732.491
10 0 59775  60702.000000  0    1760863.768   -356656.983   6639129.892
10 0 59775  60822.000000  0     902003.214   -653052.720   6786843.040
10 0 59775  60942.000000  0      22451.793   -922841.584   6815294.330
10 0 59775  61062.000000  0    -861935.464  -1161092.729   6723988.566
10 0 59775  61182.000000  0   -1735140.088  -1363703.078   6514520.203
10 0 59775  61302.000000  0   -2581268.658  -1527467.718   6190546.133
10 0 59775  61422.000000  0   -3384840.436  -1650129.816   5757727.208
10 0 59775  61542.000000  0   -4131074.144  -1730411.225   5223637.276
10 0 59775  61662.000000  0   -4806165.461  -1768022.465   4597636.033
10 0 59775  61782.000000  0   -5397549.651  -1763650.638   3890709.283
10 0 59775  61902.000000  0   -5894142.985  -1718925.193   3115278.588
10 0 59775  62022.000000  0   -6286558.816  -1636363.093   2284984.900
10 0 59775  62142.000000  0   -6567295.692  -1519295.219   1414447.866
10 0 59775  62262.000000  0   -6730889.345  -1371774.230    519001.737
10 0 59775  62382.000000  0   -6774023.262  -1198465.961   -385582.581
10 0 59775  62502.000000  0   -6695596.441  -1004527.647  -1283384.432
10 0 59775  62622.000000  0   -6496745.905   -795476.235  -2158622.458
10 0 59775  62742.000000  0   -6180824.668   -577050.686  -2995938.585
10 0 59775  62862.000000  0   -5753336.235   -355071.947  -3780673.031
10 0 59775  62982.000000  0   -5221826.084   -135302.173  -4499122.800
10 0 59775  63102.000000  0   -4595735.193     76691.770  -5138778.052
10 0 59775  63222.000000  0   -3886220.374    275667.054  -5688534.013
10 0 59775  63342.000000  0   -3105944.346    456823.053  -6138874.337
10 0 59775  63462.000000  0   -2268842.786    615906.896  -6482023.211
10 0 59775  63582.000000  0   -1389873.551    749304.385  -6712068.270
10 0 59775  63702.000000  0    -484750.169    854115.445  -6825052.092
10 0 59775  63822.000000  0     430333.741    928212.818  -6819031.274
10 0 59775  63942.000000  0    1338985.660    970282.522  -6694107.355
10 0 59775  64062.000000  0    2224901.886    979846.699  -6452427.446
10 0 59775  64182.000000  0    3072154.391    957268.230  -6098151.100
10 0 59775  64302.000000  0    3865473.062    903736.779  -5637385.263
10 0 59775  64422.000000  0    4590518.638    821235.980  -5078089.431
10 0 59775  64542.000000  0    5234144.635    712492.962  -4429950.195
10 0 59775  64662.000000  0    5784642.548    580910.826  -3704224.009
10 0 59775  64782.000000  0    6231963.935    430484.485  -2913550.598
10 0 59775  64902.000000  0    6567915.693    265702.245  -2071739.746
10 0 59775  65022.000000  0    6786324.062     91434.381  -1193532.292
10 0 59775  65142.000000  0    6883159.544    -87188.373   -294339.620
10 0 59775  65262.000000  0    6856620.717   -264903.102    610031.115
10 0 59775  65382.000000  0    6707175.003   -436447.677   1503662.204
10 0 59775  65502.000000  0    6437553.450   -596694.256   2370814.401
10 0 59775  65622.000000  0    6052699.166   -740779.914   3196214.055
10 0 59775  65742.000000  0    5559669.961   -864230.869   3965329.052
10 0 59775  65862.000000  0    4967501.897   -963077.149   4664629.173
10 0 59775  65982.000000  0    4287033.531  -1033955.942   5281826.919
10 0 59775  66102.000000  0    3530696.918  -1074198.715   5806092.083
10 0 59775  66222.000000  0    2712281.540  -1081902.171   6228238.159
10 0 59775  66342.000000  0    1846675.907  -1055981.746   6540877.697
10 0 59775  66462.000000  0     949592.301   -996206.512   6738546.633
10 0 59775  66582.000000  0      37277.814   -903214.118   6817794.195
10 0 59775  66702.000000  0    -873780.479   -778506.020   6777237.993
10 0 59775  66822.000000  0   -1767152.207   -624423.478   6617585.897
10 0 59775  66942.000000  0   -2626758.484   -444103.858   6341624.242
10 0 59775  67062.000000  0   -3437160.517   -241418.361   5954173.232
10 0 59775  67182.000000  0   -4183839.129    -20892.022   5462008.888
10 0 59775  67302.000000  0   -4853460.110    212392.701   4873750.742
10 0 59775  67422.000000  0   -5434119.519    452906.671   4199716.196
10 0 59775  67542.000000  0   -5915564.100    694797.759   3451743.157
10 0 59775  67662.000000  0   -6289381.427    932024.672   2642984.430
10 0 59775  67782.000000  0   -6549156.899   1158498.081   1787675.793
10 0 59775  67902.000000  0   -6690592.474   1368225.138    900881.817
10 0 59775  68022.000000  0   -6711584.296   1555454.435     -1776.465
10 0 59775  68142.000000  0   -6612254.934   1714817.392   -904405.933
10 0 59775  68262.000000  0   -6394940.176   1841461.664  -1791129.991
10 0 59775  68382.000000  0   -6064132.545   1931174.390  -2646375.450
10 0 59775  68502.000000  0   -5626381.482   1980492.186  -3455153.335
10 0 59775  68622.000000  0   -5090152.432   1986793.683  -4203325.235
10 0 59775  68742.000000  0   -4465650.858   1948373.265  -4877849.137
10 0 59775  68862.000000  0   -3764616.354   1864494.892  -5467001.293
10 0 59775  68982.000000  0   -3000093.032   1735425.354  -5960570.793
10 0 59775  69102.000000  0   -2186181.516   1562446.398  -6350026.393
10 0 59775  69222.000000  0   -1337775.312   1347845.799  -6628652.976
10 0 59775  69342.000000  0    -470289.053   1094887.550  -6791654.950
10 0 59775  69462.000000  0     400616.414    807762.334  -6836229.071
10 0 59775  69582.000000  0    1259308.755    491519.658  -6761608.346
10 0 59775  69702.000000  0    2090459.336    151980.805  -6569075.412
10 0 59775  69822.000000  0    2879310.643   -204365.413  -6261942.084
10 0 59775  69942.000000  0    3611934.451   -570482.392  -5845498.870
10 0 59775  70062.000000  0    4275475.287   -938919.923  -5326931.970
10 0 59775  70182.000000  0    4858377.646  -1301960.694  -4715211.725
10 0 59775  70302.000000  0    5350593.665  -1651777.810  -4020948.957
10 0 59775  70422.000000  0    5743765.151  -1980598.955  -3256220.828
10 0 59775  70542.000000  0    6031376.553  -2280874.611  -2434368.100
10 0 59775  70662.000000  0    6208874.341  -2545446.665  -1569766.008
10 0 59775  70782.000000  0    6273749.151  -2767712.818   -677573.066
10 0 59775  70902.000000  0    6225578.842  -2941783.029    226537.847
10 0 59775  71022.000000  0    6066030.057  -3062623.745   1126660.910
10 0 59775  71142.000000  0    5798818.457  -3126186.049   2006946.167
10 0 59775  71262.000000  0    5429625.086  -3129513.853   2851888.286
10 0 59775  71382.000000  0    4965974.207  -3070829.616   3646607.614
10 0 59775  71502.000000  0    4417074.658  -2949594.081   4377117.897
10 0 59775  71622.000000  0    3793631.595  -2766541.315   5030575.309
10 0 59775  71742.000000  0    3107629.458  -2523687.479   5595506.131
10 0 59775  71862.000000  0    2372093.399  -2224311.535   6062005.146
10 0 59775  71982.000000  0    1600836.216  -1872910.690   6421904.495
10 0 59775  72102.000000  0     808194.728  -1475131.374   6668910.962
10 0 59775  72222.000000  0       8760.630  -1037676.675   6798709.926
10 0 59775  72342.000000  0    -782888.421   -568191.909   6809035.463
10 0 59775  72462.000000  0   -1552453.501    -75130.871   6699706.822
10 0 59775  72582.000000  0   -2286171.581    432396.057   6472631.448
99
